ONEWEB-0196             
1 48218U 21031J   25191.44819874  .00000256  00000+0  65574-3 0  9995
2 48218  87.9044 357.7001 0001906  90.7122 269.4226 13.14503186203331
ONEWEB-0183             
1 48219U 21031K   25191.49890748 -.00000095  00000+0 -28990-3 0  9994
2 48219  87.9042 357.7024 0001652  94.2754 265.8564 13.14506090203436
ONEWEB-0185             
1 48220U 21031L   25191.52509898  .00000275  00000+0  70764-3 0  9997
2 48220  87.9040 357.6635 0001459  85.5804 274.5492 13.14503872203361
ONEWEB-0187             
1 48221U 21031M   25191.50514000 -.00000053  00000+0 -17697-3 0  9999
2 48221  87.9043 357.7131 0001685  83.4896 276.6425 13.14503911203370
ONEWEB-0192             
1 48222U 21031N   25191.70350575 -.00000044  00000+0 -15298-3 0  9992
2 48222  87.9045 357.6666 0001901  90.5962 269.5386 13.14502701203316
ONEWEB-0219             
1 48223U 21031P   25191.45454348  .00000249  00000+0  63786-3 0  9998
2 48223  87.9043 357.6888 0001744  87.5468 272.5861 13.14502858203486
ONEWEB-0202             
1 48224U 21031Q   25192.19669013 -.00000094  00000+0 -28686-3 0  9998
2 48224  87.9042 357.5556 0002350  76.6950 283.4441 13.14502917203577
ONEWEB-0204             
1 48225U 21031R   25191.69795325  .00000057  00000+0  11983-3 0  9998
2 48225  87.9027 357.6533 0001568  98.6509 261.4798 13.14502544203398
